{
  "type": "FeatureCollection",
  "features": [
    {
      "type": "Feature",
      "properties": {
        "norad_id": 30290,
        "name": "FENGYUN 1C DEB",
        "group": "fengyun-1c-debris",
        "lat": 69.57707382526328,
        "lon": 47.2731227130799,
        "alt_km": 628.2944673518023,
        "timestamp": "2025-12-09T23:33:24.129885+00:00",
        "meta_object_name": "FENGYUN 1C DEB",
        "meta_object_id": "1999-025ZB",
        "meta_epoch": "2025-12-09T13:31:10.439328",
        "meta_mean_motion": 14.74560306,
        "meta_eccentricity": 0.00164362,
        "meta_inclination": 102.6221,
        "meta_ra_of_asc_node": 83.6235,
        "meta_arg_of_pericenter": 61.0689,
        "meta_mean_anomaly": 313.7827,
        "meta_ephemeris_type": 0,
        "meta_classification_type": "U",
        "meta_norad_cat_id": 30290,
        "meta_element_set_no": 999,
        "meta_rev_at_epoch": 97832,
        "meta_bstar": 0.0067928116,
        "meta_mean_motion_dot": 0.00045565,
        "meta_mean_motion_ddot": 0,
        "tle_line1": "1 30290U 99025ZB  25343.56331527  .00045565  00000+0  67928-2 0  9996",
        "tle_line2": "2 30290 102.6221  83.6235 0016436  61.0689 313.7827 14.74560306978323"
      },
      "geometry": {
        "type": "Point",
        "coordinates": [
          47.2731227130799,
          69.57707382526328
        ]
      }
    },
    {
      "type": "Feature",
      "properties": {
        "norad_id": 30291,
        "name": "FENGYUN 1C DEB",
        "group": "fengyun-1c-debris",
        "lat": -1.4439930413736746,
        "lon": -126.67761654034206,
        "alt_km": 642.415398777227,
        "timestamp": "2025-12-09T23:33:24.129895+00:00",
        "meta_object_name": "FENGYUN 1C DEB",
        "meta_object_id": "1999-025ZC",
        "meta_epoch": "2025-12-09T05:58:20.259840",
        "meta_mean_motion": 14.55081595,
        "meta_eccentricity": 0.0112233,
        "meta_inclination": 97.2317,
        "meta_ra_of_asc_node": 232.5044,
        "meta_arg_of_pericenter": 29.9597,
        "meta_mean_anomaly": 93.6015,
        "meta_ephemeris_type": 0,
        "meta_classification_type": "U",
        "meta_norad_cat_id": 30291,
        "meta_element_set_no": 999,
        "meta_rev_at_epoch": 97657,
        "meta_bstar": 0.0037379,
        "meta_mean_motion_dot": 0.00017545,
        "meta_mean_motion_ddot": 0,
        "tle_line1": "1 30291U 99025ZC  25343.24884560  .00017545  00000+0  37379-2 0  9996",
        "tle_line2": "2 30291  97.2317 232.5044 0112233  29.9597  93.6015 14.55081595976570"
      },
      "geometry": {
        "type": "Point",
        "coordinates": [
          -126.67761654034206,
          -1.4439930413736746
        ]
      }
    },
    {
      "type": "Feature",
      "properties": {
        "norad_id": 30293,
        "name": "FENGYUN 1C DEB",
        "group": "fengyun-1c-debris",
        "lat": -42.84632048219748,
        "lon": -176.6602446184295,
        "alt_km": 788.6897143049409,
        "timestamp": "2025-12-09T23:33:24.129905+00:00",
        "meta_object_name": "FENGYUN 1C DEB",
        "meta_object_id": "1999-025ZE",
        "meta_epoch": "2025-12-08T11:26:13.860384",
        "meta_mean_motion": 14.48903722,
        "meta_eccentricity": 0.00766464,
        "meta_inclination": 99.2547,
        "meta_ra_of_asc_node": 172.9927,
        "meta_arg_of_pericenter": 127.3342,
        "meta_mean_anomaly": 263.7879,
        "meta_ephemeris_type": 0,
        "meta_classification_type": "U",
        "meta_norad_cat_id": 30293,
        "meta_element_set_no": 999,
        "meta_rev_at_epoch": 98915,
        "meta_bstar": 0.0012430487,
        "meta_mean_motion_dot": 4.831e-05,
        "meta_mean_motion_ddot": 0,
        "tle_line1": "1 30293U 99025ZE  25342.47654931  .00004831  00000+0  12430-2 0  9994",
        "tle_line2": "2 30293  99.2547 172.9927 0076646 127.3342 263.7879 14.48903722989157"
      },
      "geometry": {
        "type": "Point",
        "coordinates": [
          -176.6602446184295,
          -42.84632048219748
        ]
      }
    },
    {
      "type": "Feature",
      "properties": {
        "norad_id": 30294,
        "name": "FENGYUN 1C DEB",
        "group": "fengyun-1c-debris",
        "lat": 18.784187943161857,
        "lon": -30.554313725547473,
        "alt_km": 705.0910435828109,
        "timestamp": "2025-12-09T23:33:24.129916+00:00",
        "meta_object_name": "FENGYUN 1C DEB",
        "meta_object_id": "1999-025ZF",
        "meta_epoch": "2025-12-08T22:36:53.773056",
        "meta_mean_motion": 14.34931347,
        "meta_eccentricity": 0.01977848,
        "meta_inclination": 98.3557,
        "meta_ra_of_asc_node": 331.3046,
        "meta_arg_of_pericenter": 321.0532,
        "meta_mean_anomaly": 90.7129,
        "meta_ephemeris_type": 0,
        "meta_classification_type": "U",
        "meta_norad_cat_id": 30294,
        "meta_element_set_no": 999,
        "meta_rev_at_epoch": 98482,
        "meta_bstar": 0.00063784249,
        "meta_mean_motion_dot": 2.213e-05,
        "meta_mean_motion_ddot": 0,
        "tle_line1": "1 30294U 99025ZF  25342.94228904  .00002213  00000+0  63784-3 0  9995",
        "tle_line2": "2 30294  98.3557 331.3046 0197784 321.0532  90.7129 14.34931347984827"
      },
      "geometry": {
        "type": "Point",
        "coordinates": [
          -30.554313725547473,
          18.784187943161857
        ]
      }
    },
    {
      "type": "Feature",
      "properties": {
        "norad_id": 30295,
        "name": "FENGYUN 1C DEB",
        "group": "fengyun-1c-debris",
        "lat": 56.39067572749179,
        "lon": -6.502796530918924,
        "alt_km": 745.7528175611369,
        "timestamp": "2025-12-09T23:33:24.129941+00:00",
        "meta_object_name": "FENGYUN 1C DEB",
        "meta_object_id": "1999-025ZG",
        "meta_epoch": "2025-12-08T23:58:54.482016",
        "meta_mean_motion": 14.25039189,
        "meta_eccentricity": 0.0094538,
        "meta_inclination": 98.5084,
        "meta_ra_of_asc_node": 5.5613,
        "meta_arg_of_pericenter": 93.2899,
        "meta_mean_anomaly": 328.313,
        "meta_ephemeris_type": 0,
        "meta_classification_type": "U",
        "meta_norad_cat_id": 30295,
        "meta_element_set_no": 999,
        "meta_rev_at_epoch": 98123,
        "meta_bstar": 0.00022821,
        "meta_mean_motion_dot": 5.18e-06,
        "meta_mean_motion_ddot": 0,
        "tle_line1": "1 30295U 99025ZG  25342.99924169  .00000518  00000+0  22821-3 0  9990",
        "tle_line2": "2 30295  98.5084   5.5613 0094538  93.2899 328.3130 14.25039189981239"
      },
      "geometry": {
        "type": "Point",
        "coordinates": [
          -6.502796530918924,
          56.39067572749179
        ]
      }
    },
    {
      "type": "Feature",
      "properties": {
        "norad_id": 30297,
        "name": "FENGYUN 1C DEB",
        "group": "fengyun-1c-debris",
        "lat": 26.10948370402531,
        "lon": -68.8278239084263,
        "alt_km": 841.6940303505762,
        "timestamp": "2025-12-09T23:33:24.129952+00:00",
        "meta_object_name": "FENGYUN 1C DEB",
        "meta_object_id": "1999-025ZJ",
        "meta_epoch": "2025-12-09T08:49:09.137568",
        "meta_mean_motion": 14.2174224,
        "meta_eccentricity": 0.03795929,
        "meta_inclination": 98.8118,
        "meta_ra_of_asc_node": 294.9174,
        "meta_arg_of_pericenter": 125.3571,
        "meta_mean_anomaly": 4.3466,
        "meta_ephemeris_type": 0,
        "meta_classification_type": "U",
        "meta_norad_cat_id": 30297,
        "meta_element_set_no": 999,
        "meta_rev_at_epoch": 95104,
        "meta_bstar": 0.001354429,
        "meta_mean_motion_dot": 6.194e-05,
        "meta_mean_motion_ddot": 0,
        "tle_line1": "1 30297U 99025ZJ  25343.36746687  .00006194  00000+0  13544-2 0  9998",
        "tle_line2": "2 30297  98.8118 294.9174 0379592 125.3571   4.3466 14.21742240951042"
      },
      "geometry": {
        "type": "Point",
        "coordinates": [
          -68.8278239084263,
          26.10948370402531
        ]
      }
    },
    {
      "type": "Feature",
      "properties": {
        "norad_id": 30298,
        "name": "FENGYUN 1C DEB",
        "group": "fengyun-1c-debris",
        "lat": 65.73520734657832,
        "lon": -84.540226997037,
        "alt_km": 786.802899763381,
        "timestamp": "2025-12-09T23:33:24.129963+00:00",
        "meta_object_name": "FENGYUN 1C DEB",
        "meta_object_id": "1999-025ZK",
        "meta_epoch": "2025-12-09T04:42:18.683712",
        "meta_mean_motion": 14.19889533,
        "meta_eccentricity": 0.00489123,
        "meta_inclination": 99.0011,
        "meta_ra_of_asc_node": 74.0745,
        "meta_arg_of_pericenter": 137.917,
        "meta_mean_anomaly": 282.0574,
        "meta_ephemeris_type": 0,
        "meta_classification_type": "U",
        "meta_norad_cat_id": 30298,
        "meta_element_set_no": 999,
        "meta_rev_at_epoch": 96784,
        "meta_bstar": 0.002518567,
        "meta_mean_motion_dot": 5.368e-05,
        "meta_mean_motion_ddot": 0,
        "tle_line1": "1 30298U 99025ZK  25343.19604958  .00005368  00000+0  25186-2 0  9991",
        "tle_line2": "2 30298  99.0011  74.0745 0048912 137.9170 282.0574 14.19889533967846"
      },
      "geometry": {
        "type": "Point",
        "coordinates": [
          -84.540226997037,
          65.73520734657832
        ]
      }
    }
  ]
}